[{"OBJECT_NAME":"STARLINK-36124","OBJECT_ID":"2025-299V","EPOCH":"2026-03-09T22:00:01.999584","MEAN_MOTION":15.27574824,"ECCENTRICITY":0.0001908,"INCLINATION":43.0006,"RA_OF_ASC_NODE":167.8374,"ARG_OF_PERICENTER":251.054,"MEAN_ANOMALY":320.2018,"EPHEMERIS_TYPE":0,"CLASSIFICATION_TYPE":"U","NORAD_CAT_ID":67121,"ELEMENT_SET_NO":999,"REV_AT_EPOCH":590,"BSTAR":1.30678e-7,"MEAN_MOTION_DOT":-2.59e-6,"MEAN_MOTION_DDOT":0},{"OBJECT_NAME":"KIRARI (OICETS)","OBJECT_ID":"2005-031A","EPOCH":"2026-03-09T15:02:18.043872","MEAN_MOTION":15.22934858,"ECCENTRICITY":0.0019783,"INCLINATION":98.0768,"RA_OF_ASC_NODE":316.1697,"ARG_OF_PERICENTER":5.9068,"MEAN_ANOMALY":354.2396,"EPHEMERIS_TYPE":0,"CLASSIFICATION_TYPE":"U","NORAD_CAT_ID":28809,"ELEMENT_SET_NO":999,"REV_AT_EPOCH":12344,"BSTAR":0.00027776,"MEAN_MOTION_DOT":6.472e-5,"MEAN_MOTION_DDOT":0}]
